start=new Date('2022-08-09T00:00:00.000Z').valueOf();
sats=[{"GP_ID":"209864202","OBJECT_NAME":"STARLINK-3803","EPOCH":"2022-08-08T22:00:00.999936","APOAPSIS":"541.047","MEAN_MOTION_DDOT":"0.0000000000000","RA_OF_ASC_NODE":"304.4139","EPHEMERIS_TYPE":"0","LAUNCH_DATE":"2022-04-29","OBJECT_ID":"2022-045BC","PERIOD":"95.437","DECAY_DATE":null,"INCLINATION":"53.2161","SEMIMAJOR_AXIS":"6917.871","OBJECT_TYPE":"PAYLOAD","MEAN_ANOMALY":"63.2989","CLASSIFICATION_TYPE":"U","ARG_OF_PERICENTER":"46.9822","NORAD_CAT_ID":"52381","MEAN_MOTION_DOT":"-0.00025735","ECCENTRICITY":"0.00018940","TLE_LINE2":"2 52381  53.2161 304.4139 0001894  46.9822  63.2989 15.08842933  1300","ELEMENT_SET_NO":"999","TLE_LINE1":"1 52381U 22045BC  22220.91667824 -.00025735  00000-0 -16045-2 0  9995","FILE":"3532305","REF_FRAME":"TEME","BSTAR":"-0.00160450000000","REV_AT_EPOCH":"130","TIME_SYSTEM":"UTC","PERIAPSIS":"538.426","COUNTRY_CODE":"US","MEAN_ELEMENT_THEORY":"SGP4","CENTER_NAME":"EARTH","MEAN_MOTION":"15.08842933","SITE":"AFETR","RCS_SIZE":"LARGE"},{"RCS_SIZE":"LARGE","MEAN_MOTION":"15.08862199","SITE":"AFETR","CENTER_NAME":"EARTH","MEAN_ELEMENT_THEORY":"SGP4","COUNTRY_CODE":"US","PERIAPSIS":"538.627","TIME_SYSTEM":"UTC","REV_AT_EPOCH":"130","BSTAR":"-0.00089199000000","FILE":"3532305","REF_FRAME":"TEME","TLE_LINE1":"1 52382U 22045BD  22220.91667824 -.00014465  00000-0 -89199-3 0  9995","ELEMENT_SET_NO":"999","TLE_LINE2":"2 52382  53.2193 304.3981 0001519  46.9402  83.2571 15.08862199  1303","ECCENTRICITY":"0.00015190","MEAN_MOTION_DOT":"-0.00014465","NORAD_CAT_ID":"52382","ARG_OF_PERICENTER":"46.9402","CLASSIFICATION_TYPE":"U","MEAN_ANOMALY":"83.2571","OBJECT_TYPE":"PAYLOAD","SEMIMAJOR_AXIS":"6917.813","INCLINATION":"53.2193","DECAY_DATE":null,"PERIOD":"95.436","OBJECT_ID":"2022-045BD","LAUNCH_DATE":"2022-04-29","EPHEMERIS_TYPE":"0","RA_OF_ASC_NODE":"304.3981","MEAN_MOTION_DDOT":"0.0000000000000","APOAPSIS":"540.728","EPOCH":"2022-08-08T22:00:00.999936","OBJECT_NAME":"STARLINK-3799","GP_ID":"209864717"},{"ECCENTRICITY":"0.00017200","NORAD_CAT_ID":"52383","ARG_OF_PERICENTER":"49.1102","MEAN_MOTION_DOT":"-0.00021086","SEMIMAJOR_AXIS":"6795.083","CLASSIFICATION_TYPE":"U","MEAN_ANOMALY":"178.9758","OBJECT_TYPE":"PAYLOAD","DECAY_DATE":null,"PERIOD":"92.908","OBJECT_ID":"2022-045BE","INCLINATION":"53.2154","EPHEMERIS_TYPE":"0","LAUNCH_DATE":"2022-04-29","RA_OF_ASC_NODE":"297.4556","APOAPSIS":"418.117","MEAN_MOTION_DDOT":"0.0000000000000","OBJECT_NAME":"STARLINK-3811","GP_ID":"209864460","EPOCH":"2022-08-08T22:00:00.999936","RCS_SIZE":"LARGE","MEAN_ELEMENT_THEORY":"SGP4","CENTER_NAME":"EARTH","SITE":"AFETR","MEAN_MOTION":"15.49924826","COUNTRY_CODE":"US","PERIAPSIS":"415.779","REV_AT_EPOCH":"130","TIME_SYSTEM":"UTC","FILE":"3532305","REF_FRAME":"TEME","BSTAR":"-0.00036402000000","ELEMENT_SET_NO":"999","TLE_LINE1":"1 52383U 22045BE  22220.91667824 -.00021086  00000-0 -36402-3 0  9992","TLE_LINE2":"2 52383  53.2154 297.4556 0001720  49.1102 178.9758 15.49924826  1307"},{"MEAN_ELEMENT_THEORY":"SGP4","CENTER_NAME":"EARTH","SITE":"AFETR","MEAN_MOTION":"15.08872604","RCS_SIZE":"LARGE","PERIAPSIS":"538.209","COUNTRY_CODE":"US","REV_AT_EPOCH":"130","TIME_SYSTEM":"UTC","TLE_LINE2":"2 52451  53.2144 184.4234 0002077  64.5758 165.6692 15.08872604  1305","FILE":"3532305","REF_FRAME":"TEME","BSTAR":"-0.00139840000000","ELEMENT_SET_NO":"999","TLE_LINE1":"1 52451U 22049A   22220.91667824 -.00022495  00000-0 -13984-2 0  9996","NORAD_CAT_ID":"52451","ARG_OF_PERICENTER":"64.5758","MEAN_MOTION_DOT":"-0.00022495","ECCENTRICITY":"0.00020770","PERIOD":"95.435","DECAY_DATE":null,"OBJECT_ID":"2022-049A","INCLINATION":"53.2144","SEMIMAJOR_AXIS":"6917.781","CLASSIFICATION_TYPE":"U","OBJECT_TYPE":"PAYLOAD","MEAN_ANOMALY":"165.6692","RA_OF_ASC_NODE":"184.4234","EPHEMERIS_TYPE":"0","LAUNCH_DATE":"2022-05-06","OBJECT_NAME":"STARLINK-3870","GP_ID":"209864467","EPOCH":"2022-08-08T22:00:00.999936","APOAPSIS":"541.083","MEAN_MOTION_DDOT":"0.0000000000000"},{"TLE_LINE2":"2 52452  53.2148 184.4252 0002876  56.8085  48.2201 15.08864842 14686","FILE":"3532277","REF_FRAME":"TEME","BSTAR":"-0.00062555000000","ELEMENT_SET_NO":"999","TLE_LINE1":"1 52452U 22049B   22220.91667824 -.00010238  00000-0 -62555-3 0  9998","REV_AT_EPOCH":"1468","TIME_SYSTEM":"UTC","PERIAPSIS":"537.680","COUNTRY_CODE":"US","MEAN_ELEMENT_THEORY":"SGP4","CENTER_NAME":"EARTH","MEAN_MOTION":"15.08864842","SITE":"AFETR","RCS_SIZE":"LARGE","OBJECT_NAME":"STARLINK-3909","GP_ID":"209839520","EPOCH":"2022-08-08T22:00:00.999936","APOAPSIS":"541.659","MEAN_MOTION_DDOT":"0.0000000000000","RA_OF_ASC_NODE":"184.4252","EPHEMERIS_TYPE":"0","LAUNCH_DATE":"2022-05-06","DECAY_DATE":null,"PERIOD":"95.436","OBJECT_ID":"2022-049B","INCLINATION":"53.2148","SEMIMAJOR_AXIS":"6917.804","CLASSIFICATION_TYPE":"U","MEAN_ANOMALY":"48.2201","OBJECT_TYPE":"PAYLOAD","NORAD_CAT_ID":"52452","ARG_OF_PERICENTER":"56.8085","MEAN_MOTION_DOT":"-0.00010238","ECCENTRICITY":"0.00028760"},{"EPOCH":"2022-08-08T22:00:00.999936","OBJECT_NAME":"STARLINK-3872","GP_ID":"209864596","MEAN_MOTION_DDOT":"0.0000000000000","APOAPSIS":"541.056","RA_OF_ASC_NODE":"184.4154","EPHEMERIS_TYPE":"0","LAUNCH_DATE":"2022-05-06","INCLINATION":"53.2160","DECAY_DATE":null,"PERIOD":"95.435","OBJECT_ID":"2022-049C","CLASSIFICATION_TYPE":"U","OBJECT_TYPE":"PAYLOAD","MEAN_ANOMALY":"212.3662","SEMIMAJOR_AXIS":"6917.779","MEAN_MOTION_DOT":"-0.00029870","NORAD_CAT_ID":"52453","ARG_OF_PERICENTER":"57.8821","ECCENTRICITY":"0.00020410","TLE_LINE2":"2 52453  53.2160 184.4154 0002041  57.8821 212.3662 15.08873067  1304","FILE":"3532305","BSTAR":"-0.00186470000000","REF_FRAME":"TEME","TLE_LINE1":"1 52453U 22049C   22220.91667824 -.00029870  00000-0 -18647-2 0  9993","ELEMENT_SET_NO":"999","TIME_SYSTEM":"UTC","REV_AT_EPOCH":"130","PERIAPSIS":"538.232","COUNTRY_CODE":"US","MEAN_MOTION":"15.08873067","SITE":"AFETR","MEAN_ELEMENT_THEORY":"SGP4","CENTER_NAME":"EARTH","RCS_SIZE":"LARGE"},{"ARG_OF_PERICENTER":"65.9422","NORAD_CAT_ID":"52454","MEAN_MOTION_DOT":"-0.00024307","ECCENTRICITY":"0.00022990","OBJECT_ID":"2022-049D","DECAY_DATE":null,"PERIOD":"95.435","INCLINATION":"53.2166","SEMIMAJOR_AXIS":"6917.778","MEAN_ANOMALY":"184.2994","OBJECT_TYPE":"PAYLOAD","CLASSIFICATION_TYPE":"U","RA_OF_ASC_NODE":"184.4171","EPHEMERIS_TYPE":"0","LAUNCH_DATE":"2022-05-06","GP_ID":"209864339","OBJECT_NAME":"STARLINK-3888","EPOCH":"2022-08-08T22:00:00.999936","APOAPSIS":"541.234","MEAN_MOTION_DDOT":"0.0000000000000","MEAN_ELEMENT_THEORY":"SGP4","CENTER_NAME":"EARTH","SITE":"AFETR","MEAN_MOTION":"15.08873460","RCS_SIZE":"LARGE","PERIAPSIS":"538.053","COUNTRY_CODE":"US","REV_AT_EPOCH":"130","TIME_SYSTEM":"UTC","TLE_LINE2":"2 52454  53.2166 184.4171 0002299  65.9422 184.2994 15.08873460  1304","ELEMENT_SET_NO":"999","TLE_LINE1":"1 52454U 22049D   22220.91667824 -.00024307  00000-0 -15128-2 0  9995","BSTAR":"-0.00151280000000","FILE":"3532305","REF_FRAME":"TEME"},{"EPOCH":"2022-08-08T22:00:00.999936","OBJECT_NAME":"STARLINK-3890","GP_ID":"209839513","MEAN_MOTION_DDOT":"0.0000000000000","APOAPSIS":"541.000","RA_OF_ASC_NODE":"184.4153","EPHEMERIS_TYPE":"0","LAUNCH_DATE":"2022-05-06","INCLINATION":"53.2165","DECAY_DATE":null,"PERIOD":"95.436","OBJECT_ID":"2022-049E","CLASSIFICATION_TYPE":"U","OBJECT_TYPE":"PAYLOAD","MEAN_ANOMALY":"211.3197","SEMIMAJOR_AXIS":"6917.807","MEAN_MOTION_DOT":"-0.00003826","NORAD_CAT_ID":"52455","ARG_OF_PERICENTER":"73.7088","ECCENTRICITY":"0.00019190","TLE_LINE2":"2 52455  53.2165 184.4153 0001919  73.7088 211.3197 15.08863901 14699","BSTAR":"-0.00022225000000","FILE":"3532277","REF_FRAME":"TEME","ELEMENT_SET_NO":"999","TLE_LINE1":"1 52455U 22049E   22220.91667824 -.00003826  00000-0 -22225-3 0  9996","TIME_SYSTEM":"UTC","REV_AT_EPOCH":"1469","PERIAPSIS":"538.345","COUNTRY_CODE":"US","SITE":"AFETR","MEAN_MOTION":"15.08863901","MEAN_ELEMENT_THEORY":"SGP4","CENTER_NAME":"EARTH","RCS_SIZE":"LARGE"},{"LAUNCH_DATE":"2022-05-06","EPHEMERIS_TYPE":"0","RA_OF_ASC_NODE":"184.4158","APOAPSIS":"541.305","MEAN_MOTION_DDOT":"0.0000000000000","OBJECT_NAME":"STARLINK-3896","GP_ID":"209839305","EPOCH":"2022-08-08T22:00:00.999936","ECCENTRICITY":"0.00023830","NORAD_CAT_ID":"52456","ARG_OF_PERICENTER":"61.5506","MEAN_MOTION_DOT":"-0.00017721","SEMIMAJOR_AXIS":"6917.791","CLASSIFICATION_TYPE":"U","OBJECT_TYPE":"PAYLOAD","MEAN_ANOMALY":"243.4826","DECAY_DATE":null,"PERIOD":"95.436","OBJECT_ID":"2022-049F","INCLINATION":"53.2176","REV_AT_EPOCH":"1469","TIME_SYSTEM":"UTC","FILE":"3532280","BSTAR":"-0.00109710000000","REF_FRAME":"TEME","TLE_LINE1":"1 52456U 22049F   22220.91667824 -.00017721  00000-0 -10971-2 0  9990","ELEMENT_SET_NO":"999","TLE_LINE2":"2 52456  53.2176 184.4158 0002383  61.5506 243.4826 15.08869142 14691","RCS_SIZE":"LARGE","CENTER_NAME":"EARTH","MEAN_ELEMENT_THEORY":"SGP4","MEAN_MOTION":"15.08869142","SITE":"AFETR","COUNTRY_CODE":"US","PERIAPSIS":"538.008"},{"RCS_SIZE":"MEDIUM","MEAN_ELEMENT_THEORY":"SGP4","CENTER_NAME":"EARTH","MEAN_MOTION":"15.08869272","SITE":"AFETR","COUNTRY_CODE":"US","PERIAPSIS":"538.530","REV_AT_EPOCH":"1469","TIME_SYSTEM":"UTC","ELEMENT_SET_NO":"999","TLE_LINE1":"1 52457U 22049G   22220.91667824 -.00025184  00000-0 -15685-2 0  9990","BSTAR":"-0.00156850000000","FILE":"3532277","REF_FRAME":"TEME","TLE_LINE2":"2 52457  53.2168 184.4154 0001628  75.8001 249.2523 15.08869272 14690","ECCENTRICITY":"0.00016280","ARG_OF_PERICENTER":"75.8001","NORAD_CAT_ID":"52457","MEAN_MOTION_DOT":"-0.00025184","SEMIMAJOR_AXIS":"6917.791","OBJECT_TYPE":"PAYLOAD","MEAN_ANOMALY":"249.2523","CLASSIFICATION_TYPE":"U","OBJECT_ID":"2022-049G","PERIOD":"95.436","DECAY_DATE":null,"INCLINATION":"53.2168","EPHEMERIS_TYPE":"0","LAUNCH_DATE":"2022-05-06","RA_OF_ASC_NODE":"184.4154","APOAPSIS":"540.782","MEAN_MOTION_DDOT":"0.0000000000000","GP_ID":"209839521","OBJECT_NAME":"STARLINK-3899","EPOCH":"2022-08-08T22:00:00.999936"}];
